{
    "links": {
        "self": "http://www.neowsapp.com/rest/v1/neo/3693265?api_key=iIulBulltgU6a56xZRHN4H3l9WmuAYTsLGpBGhQ2"
    },
    "id": "3693265",
    "neo_reference_id": "3693265",
    "name": "(2014 TB36)",
    "designation": "2014 TB36",
    "nasa_jpl_url": "http://ssd.jpl.nasa.gov/sbdb.cgi?sstr=3693265",
    "absolute_magnitude_h": 25.3,
    "estimated_diameter": {
        "kilometers": {
            "estimated_diameter_min": 0.0231502122,
            "estimated_diameter_max": 0.0517654482
        },
        "meters": {
            "estimated_diameter_min": 23.150212221,
            "estimated_diameter_max": 51.7654482198
        },
        "miles": {
            "estimated_diameter_min": 0.0143848705,
            "estimated_diameter_max": 0.0321655483
        },
        "feet": {
            "estimated_diameter_min": 75.9521422633,
            "estimated_diameter_max": 169.8341531374
        }
    },
    "is_potentially_hazardous_asteroid": false,
    "close_approach_data": [
        {
            "close_approach_date": "1948-05-01",
            "close_approach_date_full": "1948-May-01 01:31",
            "epoch_date_close_approach": -683850540000,
            "relative_velocity": {
                "kilometers_per_second": "19.9681470807",
                "kilometers_per_hour": "71885.3294904768",
                "miles_per_hour": "44666.748204791"
            },
            "miss_distance": {
                "astronomical": "0.3522013741",
                "lunar": "137.0063345249",
                "kilometers": "52688575.376433167",
                "miles": "32739162.6037730246"
            },
            "orbiting_body": "Earth"
        },
        {
            "close_approach_date": "2008-05-06",
            "close_approach_date_full": "2008-May-06 04:43",
            "epoch_date_close_approach": 1210048980000,
            "relative_velocity": {
                "kilometers_per_second": "17.2714195367",
                "kilometers_per_hour": "62177.1103321463",
                "miles_per_hour": "38634.4383616606"
            },
            "miss_distance": {
                "astronomical": "0.2627970719",
                "lunar": "102.2280609691",
                "kilometers": "39313882.198476853",
                "miles": "24428513.6329044514"
            },
            "orbiting_body": "Earth"
        },
        {
            "close_approach_date": "2014-10-07",
            "close_approach_date_full": "2014-Oct-07 13:27",
            "epoch_date_close_approach": 1412688420000,
            "relative_velocity": {
                "kilometers_per_second": "10.6611038197",
                "kilometers_per_hour": "38379.9737510694",
                "miles_per_hour": "23847.8231343798"
            },
            "miss_distance": {
                "astronomical": "0.0310631916",
                "lunar": "12.0835815324",
                "kilometers": "4646987.298761892",
                "miles": "2887504.0121104296"
            },
            "orbiting_body": "Earth"
        }
    ],
    "orbital_data": {
        "orbit_id": "7",
        "orbit_determination_date": "2017-04-06 08:38:09",
        "first_observation_date": "2014-10-14",
        "last_observation_date": "2014-10-30",
        "data_arc_in_days": 16,
        "observations_used": 39,
        "orbit_uncertainty": "7",
        "minimum_orbit_intersection": ".0123277",
        "jupiter_tisserand_invariant": "4.848",
        "epoch_osculation": "2459000.5",
        "eccentricity": ".3556318564410501",
        "semi_major_axis": "1.332521819631436",
        "inclination": "4.375864588320245",
        "ascending_node_longitude": "20.41005380292123",
        "orbital_period": "561.8364621116493",
        "perihelion_distance": ".8586346111677022",
        "perihelion_argument": "287.912737137612",
        "aphelion_distance": "1.80640902809517",
        "perihelion_time": "2459135.958401415961",
        "mean_anomaly": "273.2042368228225",
        "mean_motion": ".6407558502823906",
        "equinox": "J2000",
        "orbit_class": {
            "orbit_class_type": "APO",
            "orbit_class_description": "Near-Earth asteroid orbits which cross the Earth’s orbit similar to that of 1862 Apollo",
            "orbit_class_range": "a (semi-major axis) > 1.0 AU; q (perihelion) < 1.017 AU"
        }
    },
    "is_sentry_object": false
}